IRIDIUM 26              
1 24903U 97043A   25329.71219774  .00000500  00000+0  16113-3 0  9999
2 24903  86.3974  42.7180 0001965  95.5922 264.5499 14.37308093479942
IRIDIUM 22              
1 24907U 97043E   25329.77626595  .00000445  00000+0  14610-3 0  9990
2 24907  86.3979  46.3697 0002129  98.0930 262.0509 14.36103919479960
DUMMY MASS 1            
1 24925U 97048A   25329.78225258  .00000589  00000+0  62386-4 0  9990
2 24925  86.3352  60.5520 0004503 305.3736  54.7068 14.87160165529148
DUMMY MASS 2            
1 24926U 97048B   25329.77138654  .00000590  00000+0  62972-4 0  9996
2 24926  86.3352  62.1950 0005607 319.6232  40.4575 14.86910798528912
IRIDIUM 29              
1 24944U 97051A   25329.81038925  .00000585  00000+0  19212-3 0  9997
2 24944  86.3951  76.0508 0002273  96.4687 263.6769 14.36639921476478
IRIDIUM 33              
1 24946U 97051C   25329.83203749  .00000452  00000+0  15190-3 0  9993
2 24946  86.3867  75.3176 0005769 269.2449  90.8087 14.35018715475921
IRIDIUM 28              
1 24948U 97051E   25329.82119977  .00000541  00000+0  17392-3 0  9998
2 24948  86.3958  73.4690 0001570  95.7867 264.3510 14.37540599477064
IRIDIUM 36              
1 24967U 97056C   25329.82888603  .00000562  00000+0  18026-3 0  9991
2 24967  86.3947 105.0951 0001936  98.6004 261.5413 14.37760730475448
